H1 CPF 01  gfz 2021 01 13 13  5132 terrasarx 
H2 0702601  6201 31698    2021 01 13 12 59 42 2021 01 18 00 00 42   120 1 1  0 0 0
H9
10 0 59231  15822.000000  0    5328794.569   2886790.121   3266982.709
10 0 59231  15942.000000  0    5748269.062   2897566.604   2446020.420
10 0 59231  16062.000000  0    6066930.108   2851222.101   1581987.441
10 0 59231  16182.000000  0    6278237.397   2750392.086    690100.232
10 0 59231  16302.000000  0    6377604.304   2598770.887   -213934.736
10 0 59231  16422.000000  0    6362496.119   2401010.092  -1114207.148
10 0 59231  16542.000000  0    6232486.018   2162597.405  -1994890.256
10 0 59231  16662.000000  0    5989271.978   1889721.353  -2840525.849
10 0 59231  16782.000000  0    5636649.510   1589121.667  -3636301.973
10 0 59231  16902.000000  0    5180442.967   1267930.610  -4368314.852
10 0 59231  17022.000000  0    4628396.519    933509.588  -5023810.226
10 0 59231  17142.000000  0    3990030.756    593286.429  -5591398.934
10 0 59231  17262.000000  0    3276469.012    254595.889  -6061246.025
10 0 59231  17382.000000  0    2500235.833    -75472.950  -6425230.998
10 0 59231  17502.000000  0    1675033.004   -390219.961  -6677076.206
10 0 59231  17622.000000  0     815498.604   -683465.262  -6812445.087
10 0 59231  17742.000000  0     -63050.532   -949666.583  -6829009.524
10 0 59231  17862.000000  0    -944886.269  -1184020.279  -6726483.953
10 0 59231  17982.000000  0   -1814143.603  -1382545.670  -6506630.409
10 0 59231  18102.000000  0   -2655100.178  -1542151.461  -6173231.374
10 0 59231  18222.000000  0   -3452454.061  -1660682.958  -5732030.735
10 0 59231  18342.000000  0   -4191598.944  -1736950.580  -5190646.569
10 0 59231  18462.000000  0   -4858893.886  -1770738.362  -4558451.165
10 0 59231  18582.000000  0   -5441919.533  -1762791.820  -3846419.668
10 0 59231  18702.000000  0   -5929717.661  -1714785.696  -3066949.487
10 0 59231  18822.000000  0   -6313008.043  -1629271.574  -2233650.648
10 0 59231  18942.000000  0   -6584376.564  -1509605.860  -1361111.014
10 0 59231  19062.000000  0   -6738430.063  -1359860.045   -464639.993
10 0 59231  19182.000000  0   -6771913.213  -1184714.573    440004.819
10 0 59231  19302.000000  0   -6683783.240   -989338.693   1336902.024
10 0 59231  19422.000000  0   -6475239.927   -779260.334   2210255.568
10 0 59231  19542.000000  0   -6149710.354   -560228.765   3044681.943
10 0 59231  19662.000000  0   -5712788.765   -338073.290   3825489.385
10 0 59231  19782.000000  0   -5172132.081   -118561.950   4538942.659
10 0 59231  19902.000000  0   -4537315.127     92735.408   5172506.441
10 0 59231  20022.000000  0   -3819651.532    290577.775   5715063.985
10 0 59231  20142.000000  0   -3031983.082    470173.616   6157109.490
10 0 59231  20262.000000  0   -2188441.491    627288.411   6490909.378
10 0 59231  20382.000000  0   -1304189.193    758337.564   6710632.085
10 0 59231  20502.000000  0    -395142.899    860463.619   6812443.492
10 0 59231  20622.000000  0     522313.201    931595.451   6794568.624
10 0 59231  20742.000000  0    1431621.544    970489.106   6657320.423
10 0 59231  20862.000000  0    2316348.812    976749.904   6403094.755
10 0 59231  20982.000000  0    3160482.136    950834.789   6036331.693
10 0 59231  21102.000000  0    3948720.817    894035.146   5563443.094
10 0 59231  21222.000000  0    4666756.546    808440.644   4992705.580
10 0 59231  21342.000000  0    5301538.511    696883.838   4334123.099
10 0 59231  21462.000000  0    5841520.286    562867.456   3599257.021
10 0 59231  21582.000000  0    6276880.209    410476.064   2801024.610
10 0 59231  21702.000000  0    6599708.904    244273.004   1953470.886
10 0 59231  21822.000000  0    6804162.845     69184.511   1071519.412
10 0 59231  21942.000000  0    6886577.233   -109624.278    170702.842
10 0 59231  22062.000000  0    6845535.897   -286879.986   -733118.657
10 0 59231  22182.000000  0    6681894.987   -457334.614  -1624046.148
10 0 59231  22302.000000  0    6398760.888   -615898.251  -2486430.000
10 0 59231  22422.000000  0    6001422.814   -757767.751  -3305150.995
10 0 59231  22542.000000  0    5497243.181   -878548.139  -4065888.786
10 0 59231  22662.000000  0    4895508.455   -974363.234  -4755372.198
10 0 59231  22782.000000  0    4207245.963  -1041952.936  -5361606.206
10 0 59231  22902.000000  0    3445011.585  -1078756.320  -5874073.564
10 0 59231  23022.000000  0    2622652.252  -1082978.697  -6283907.442
10 0 59231  23142.000000  0    1755049.902  -1053639.952  -6584033.464
10 0 59231  23262.000000  0     857851.634   -990604.712  -6769280.689
10 0 59231  23382.000000  0     -52809.551   -894594.895  -6836461.752
10 0 59231  23502.000000  0    -960599.551   -767182.706  -6784421.252
10 0 59231  23622.000000  0   -1849269.086   -610765.504  -6614053.804
10 0 59231  23742.000000  0   -2702938.486   -428521.820  -6328289.698
10 0 59231  23862.000000  0   -3506374.620   -224350.177  -5932048.994
10 0 59231  23982.000000  0   -4245259.241     -2790.820  -5432167.231
10 0 59231  24102.000000  0   -4906445.566    231068.453  -4837288.066
10 0 59231  24222.000000  0   -5478196.163    471700.256  -4157725.770
10 0 59231  24342.000000  0   -5950400.699    713259.077  -3405297.571
10 0 59231  24462.000000  0   -6314766.330    949713.265  -2593126.065
10 0 59231  24582.000000  0   -6564976.047   1174984.496  -1735414.633
10 0 59231  24702.000000  0   -6696811.141   1383091.572   -847200.269
10 0 59231  24822.000000  0   -6708234.484   1568295.451     55914.474
10 0 59231  24942.000000  0   -6599427.823   1725240.161    958042.689
10 0 59231  25062.000000  0   -6372785.995   1849088.169   1843299.906
10 0 59231  25182.000000  0   -6032866.839   1935645.867   2696092.955
10 0 59231  25302.000000  0   -5586297.033   1981475.354   3501403.597
10 0 59231  25422.000000  0   -5041635.989   1983989.146   4245059.946
10 0 59231  25542.000000  0   -4409202.717   1941526.328   4913988.986
10 0 59231  25662.000000  0   -3700871.254   1853408.522   5496446.162
10 0 59231  25782.000000  0   -2929839.954   1719974.744   5982219.565
10 0 59231  25902.000000  0   -2110377.690   1542594.591   6362805.914
10 0 59231  26022.000000  0   -1257552.796   1323658.403   6631553.355
10 0 59231  26142.000000  0    -386952.323   1066545.589   6783770.328
10 0 59231  26262.000000  0     485602.950    775572.222   6816801.450
10 0 59231  26382.000000  0    1344344.929    455918.201   6730070.762
10 0 59231  26502.000000  0    2173841.712    113535.581   6525091.104
10 0 59231  26622.000000  0    2959273.932   -244961.270   6205440.408
10 0 59231  26742.000000  0    3686700.936   -612422.141   5776703.981
10 0 59231  26862.000000  0    4343311.407   -981301.543   5246382.070
10 0 59231  26982.000000  0    4917653.854  -1343811.934   4623764.885
10 0 59231  27102.000000  0    5399843.780  -1692085.686   3919775.558
10 0 59231  27222.000000  0    5781742.951  -2018343.080   3146782.005
10 0 59231  27342.000000  0    6057105.847  -2315063.463   2318380.252
10 0 59231  27462.000000  0    6221689.209  -2575154.329   1449153.231
10 0 59231  27582.000000  0    6273323.256  -2792114.294    554409.588
10 0 59231  27702.000000  0    6211940.868  -2960186.496   -350093.828
10 0 59231  27822.000000  0    6039564.497  -3074497.670  -1248438.127
10 0 59231  27942.000000  0    5760249.598  -3131179.278  -2124832.393
10 0 59231  28062.000000  0    5379987.252  -3127467.446  -2963897.994
10 0 59231  28182.000000  0    4906570.313  -3061779.839  -3750943.165
10 0 59231  28302.000000  0    4349425.692  -2933768.344  -4472221.428
10 0 59231  28422.000000  0    3719417.533  -2744346.252  -5115170.047
10 0 59231  28542.000000  0    3028625.932  -2495688.738  -5668622.205
10 0 59231  28662.000000  0    2290109.827  -2191208.764  -6122990.502
10 0 59231  28782.000000  0    1517658.205  -1835509.703  -6470423.404
10 0 59231  28902.000000  0     725531.380  -1434313.218  -6704931.076
10 0 59231  29022.000000  0     -71800.174   -994366.005  -6822477.635
10 0 59231  29142.000000  0    -859915.228   -523327.240  -6821042.480
10 0 59231  29262.000000  0   -1624696.354    -29638.094  -6700651.102
10 0 59231  29382.000000  0   -2352577.269    477626.089  -6463374.010
10 0 59231  29502.000000  0   -3030777.767    988917.916  -6113294.509
10 0 59231  29622.000000  0   -3647524.356   1494392.839  -5656446.636
10 0 59231  29742.000000  0   -4192255.391   1984094.269  -5100722.505
10 0 59231  29862.000000  0   -4655806.258   2448147.247  -4455747.582
10 0 59231  29982.000000  0   -5030569.896   2876956.528  -3732723.869
10 0 59231  30102.000000  0   -5310629.523   3261403.751  -2944244.676
10 0 59231  30222.000000  0   -5491862.040   3593041.845  -2104082.235
10 0 59231  30342.000000  0   -5572007.084   3864281.253  -1226949.645
10 0 59231  30462.000000  0   -5550700.381   4068562.235   -328241.580
10 0 59231  30582.000000  0   -5429469.304   4200509.641    576240.761
10 0 59231  30702.000000  0   -5211689.942   4256065.550   1470576.364
10 0 59231  30822.000000  0   -4902505.067   4232594.504   2339014.124
10 0 59231  30942.000000  0   -4508706.896   4128960.250   3166258.419
10 0 59231  31062.000000  0   -4038587.688   3945572.757   3937745.987
10 0 59231  31182.000000  0   -3501761.717   3684402.130   4639907.275
10 0 59231  31302.000000  0   -2908964.017   3348961.110   5260407.166
10 0 59231  31422.000000  0   -2271829.882   2944256.165   5788360.868
10 0 59231  31542.000000  0   -1602661.317   2476709.123   6214521.416
10 0 59231  31662.000000  0    -914184.814   1954050.623   6531435.854
10 0 59231  31782.000000  0    -219307.904   1385188.583   6733567.533
10 0 59231  31902.000000  0     469122.293    780054.381   6817387.800
10 0 59231  32022.000000  0    1138556.206    149428.846   6781433.242
10 0 59231  32142.000000  0    1776969.266   -495248.945   6626329.737
10 0 59231  32262.000000  0    2373077.163  -1142088.612   6354782.966
99
